1 29499U 06044A   11187.25199176  .00000071  00000-0  52456-4 0  4646
2 29499  98.6875 246.0422 0001055  55.8251 304.3028 14.21493012244439
1 29499U 06044A   11187.81509825 -.00000089  00000-0 -20607-4 0  4660
2 29499  98.6875 246.5965 0001006  54.3379 305.7865 14.21492230244511
1 29499U 06044A   11188.44859400 -.00000161  00000-0 -53829-4 0  4659
2 29499  98.6871 247.2200 0000977  54.4979 305.6296 14.21491928244600
1 29499U 06044A   11189.57480692 -.00000004  00000-0  18041-4 0  4660
2 29499  98.6875 248.3289 0000925  59.5007 300.6285 14.21492735244761
1 29499U 06044A   11189.85635974  .00000052  00000-0  43750-4 0  4674
2 29499  98.6876 248.6062 0000961  57.8409 302.2846 14.21492819244800
1 29499U 06044A   11190.77140709  .00000174  00000-0  99675-4 0  4676
2 29499  98.6873 249.5067 0000908  54.4057 305.7197 14.21493749244939
1 29499U 06044A   11191.75684300  .00000065  00000-0  49476-4 0  4702
2 29499  98.6871 250.4767 0000834  56.0341 304.0893 14.21493449245075
1 29499U 06044A   11192.03839657  .00000020  00000-0  29052-4 0  4687
2 29499  98.6872 250.7539 0000815  57.0837 303.0410 14.21493244245118
1 29499U 06044A   11192.81266838 -.00000140  00000-0 -44038-4 0  4707
2 29499  98.6875 251.5162 0000828  55.8183 304.3056 14.21492442245227
1 29499U 06044A   11193.09422206 -.00000123  00000-0 -36399-4 0  4691
2 29499  98.6875 251.7933 0000802  55.7268 304.4000 14.21492567245262
1 29499U 06044A   11193.79810495 -.00000148  00000-0 -47847-4 0  4719
2 29499  98.6876 252.4862 0000789  53.9275 306.1965 14.21492307245366
1 29499U 06044A   11194.43159997 -.00000035  00000-0  40551-5 0  4703
2 29499  98.6876 253.1094 0000766  51.4612 308.6659 14.21492924245456
1 29499U 06044A   11194.78354104  .00000008  00000-0  23541-4 0  4717
2 29499  98.6877 253.4559 0000774  51.8108 308.3141 14.21493092245505
1 29499U 06044A   11195.69858799  .00000122  00000-0  75773-4 0  4718
2 29499  98.6878 254.3567 0000759  49.4544 310.6692 14.21493905245639
1 29499U 06044A   11196.96557659  .00000045  00000-0  40514-4 0  4720
2 29499  98.6877 255.6040 0000746  49.7848 310.3358 14.21493749245816
1 29499U 06044A   11196.96557659  .00000045  00000-0  40514-4 0  4753
2 29499  98.6877 255.6040 0000746  49.7848 310.3358 14.21493749245816
1 29499U 06044A   11197.81023649 -.00000043  00000-0  50469-6 0  4756
2 29499  98.6874 256.4353 0000692  48.0845 312.0383 14.21493469245937
1 29499U 06044A   11198.09178980 -.00000073  00000-0 -13552-4 0  4738
2 29499  98.6869 256.7122 0000678  50.4411 309.6823 14.21493348245979
1 29499U 06044A   11198.72528438 -.00000083  00000-0 -18120-4 0  4754
2 29499  98.6869 257.3359 0000666  53.2523 306.8722 14.21493376246069
1 29499U 06044A   11199.42916713  .00000064  00000-0  49024-4 0  4742
2 29499  98.6865 258.0290 0000621  58.2289 301.8991 14.21494181246161
1 29499U 06044A   11199.71071932  .00000063  00000-0  48766-4 0  4751
2 29499  98.6866 258.3062 0000625  57.2310 302.8924 14.21494199246201
1 29499U 06044A   11200.76654253  .00000156  00000-0  91163-4 0  4754
2 29499  98.6869 259.3457 0000619  61.4740 298.6490 14.21494874246356
1 29499U 06044A   11201.75197758  .00000030  00000-0  33808-4 0  4782
2 29499  98.6859 260.3156 0000536  61.0505 299.0701 14.21494556246498
1 29499U 06044A   11202.10391923  .00000033  00000-0  35056-4 0  4760
2 29499  98.6857 260.6619 0000503  64.2517 295.8719 14.21494637246544
1 29499U 06044A   11202.73741356 -.00000060  00000-0 -74291-5 0  4787
2 29499  98.6859 261.2858 0000533  66.3940 293.7291 14.21494212246635
1 29499U 06044A   11203.30052011 -.00000110  00000-0 -30505-4 0  4778
2 29499  98.6854 261.8399 0000488  70.0307 290.0944 14.21493949246714
1 29499U 06044A   11203.86362562 -.00000089  00000-0 -20623-4 0  4791
2 29499  98.6858 262.3943 0000492  71.9204 288.2016 14.21493915246790
1 29499U 06044A   11204.49711931  .00000052  00000-0  43847-4 0  4789
2 29499  98.6855 263.0177 0000444  77.9897 282.1347 14.21494880246887
1 29499U 06044A   11204.77867185  .00000086  00000-0  59139-4 0  4792
2 29499  98.6855 263.2948 0000424  72.7966 287.3258 14.21495041246926
1 29499U 06044A   11205.76410585  .00000223  00000-0  12186-3 0  4793
2 29499  98.6852 264.2645 0000383  70.9414 289.1797 14.21496055247060
1 29499U 06044A   11206.67915292 -.00000028  00000-0  70505-5 0  4828
2 29499  98.6854 265.1651 0000380  81.5281 278.5922 14.21495031247195
1 29499U 06044A   11207.03109434 -.00000105  00000-0 -28277-4 0  4805
2 29499  98.6854 265.5114 0000372  89.1105 271.0094 14.21494544247245
1 29499U 06044A   11207.66458887 -.00000210  00000-0 -75972-4 0  4826
2 29499  98.6854 266.1348 0000367  82.2883 277.8334 14.21494125247338
1 29499U 06044A   11208.36847158 -.00000165  00000-0 -55665-4 0  4812
2 29499  98.6857 266.8275 0000391  87.5606 272.5634 14.21494204247439
1 29499U 06044A   11208.72041252 -.00000138  00000-0 -43193-4 0  4827
2 29499  98.6854 267.1737 0000382  90.7926 269.3305 14.21494269247489
1 29499U 06044A   11209.91701068  .00000115  00000-0  72280-4 0  4841
2 29499  98.6865 268.3520 0000431  96.8457 263.2744 14.21495562247651
1 29499U 06044A   11210.48011600  .00000188  00000-0  10592-3 0  4837
2 29499  98.6864 268.9062 0000403 100.5717 259.5510 14.21496282247736
1 29499U 06044A   11210.76166851  .00000119  00000-0  74239-4 0  4841
2 29499  98.6866 269.1836 0000404 100.9516 259.1685 14.21495948247773
1 29499U 06044A   11211.67671539 -.00000048  00000-0 -20140-5 0  4842
2 29499  98.6866 270.0844 0000402 105.1699 254.9507 14.21495318247902
1 29499U 06044A   11212.66215072 -.00000171  00000-0 -58285-4 0  4878
2 29499  98.6864 271.0544 0000424 109.6718 250.4502 14.21494725248046
1 29499U 06044A   11213.01409195 -.00000151  00000-0 -49023-4 0  4855
2 29499  98.6861 271.4006 0000429 114.0466 246.0755 14.21494652248090
1 29499U 06044A   11213.71797348 -.00000035  00000-0  37091-5 0  4877
2 29499  98.6860 272.0932 0000441 118.1238 241.9993 14.21495342248196
1 29499U 06044A   11214.35146683  .00000110  00000-0  70136-4 0  4866
2 29499  98.6854 272.7167 0000427 125.4393 234.6855 14.21496185248285
1 29499U 06044A   11214.91457122  .00000205  00000-0  11343-3 0  4882
2 29499  98.6852 273.2707 0000465 121.0746 239.0462 14.21496690248368
1 29499U 06044A   11215.47767605  .00000233  00000-0  12650-3 0  4876
2 29499  98.6849 273.8250 0000489 122.5501 237.5720 14.21497237248441
1 29499U 06044A   11215.75922854  .00000150  00000-0  88506-4 0  4889
2 29499  98.6846 274.1020 0000497 127.1444 232.9761 14.21496885248489
1 29499U 06044A   11216.67427486  .00000001  00000-0  20489-4 0  4883
2 29499  98.6842 275.0022 0000496 125.9839 234.1373 14.21496430248614
1 29499U 06044A   11217.65971006 -.00000198  00000-0 -70386-4 0  4918
2 29499  98.6839 275.9720 0000578 126.8448 233.2780 14.21495393248755
1 29499U 06044A   11218.01165112 -.00000148  00000-0 -47540-4 0  4890
2 29499  98.6840 276.3183 0000569 125.8675 234.2557 14.21495453248802
1 29499U 06044A   11218.85630850  .00000049  00000-0  42489-4 0  4927
2 29499  98.6837 277.1494 0000566 125.2457 234.8784 14.21496479248921
1 29499U 06044A   11219.13786088  .00000153  00000-0  89948-4 0  4909
2 29499  98.6835 277.4265 0000569 126.7342 233.3920 14.21497159248966
1 29499U 06044A   11219.70096493  .00000161  00000-0  93309-4 0  4923
2 29499  98.6838 277.9806 0000573 126.4714 233.6505 14.21497364249040
1 29499U 06044A   11220.26407016  .00000196  00000-0  10972-3 0  4914
2 29499  98.6838 278.5347 0000614 127.1035 233.0208 14.21497690249122
1 29499U 06044A   11220.89756246  .00000073  00000-0  53385-4 0  4937
2 29499  98.6841 279.1583 0000648 131.8070 228.3118 14.21497148249218
1 29499U 06044A   11221.60144453 -.00000059  00000-0 -68978-5 0  4928
2 29499  98.6843 279.8510 0000691 132.0786 228.0448 14.21496778249314
1 29499U 06044A   11221.95338524 -.00000158  00000-0 -52445-4 0  4932
2 29499  98.6842 280.1972 0000679 135.6474 224.4726 14.21496051249367
1 29499U 06044A   11222.65726722 -.00000198  00000-0 -70547-4 0  4938
2 29499  98.6846 280.8901 0000750 136.7600 223.3642 14.21495929249462
1 29499U 06044A   11222.93881982 -.00000126  00000-0 -37537-4 0  4943
2 29499  98.6847 281.1672 0000773 134.7699 225.3535 14.21496018249501
1 29499U 06044A   11223.85386514  .00000028  00000-0  32572-4 0  4949
2 29499  98.6849 282.0678 0000818 134.9803 225.1442 14.21496825249633
1 29499U 06044A   11224.76890961  .00000143  00000-0  85149-4 0  4975
2 29499  98.6847 282.9682 0000832 134.7943 225.3288 14.21497707249768
1 29499U 06044A   11225.12085030  .00000235  00000-0  12721-3 0  4954
2 29499  98.6845 283.3147 0000835 133.2346 226.8916 14.21498297249816
1 29499U 06044A   11225.75434252  .00000102  00000-0  66726-4 0  4977
2 29499  98.6843 283.9380 0000873 135.2248 224.8973 14.21497837249904
1 29499U 06044A   11226.45822387 -.00000024  00000-0  91745-5 0  4968
2 29499  98.6839 284.6306 0000890 133.9061 226.2171 14.21497428250007
1 29499U 06044A   11226.73977664 -.00000127  00000-0 -38289-4 0  4977
2 29499  98.6839 284.9076 0000895 134.8894 225.2331 14.21496813250041
1 29499U 06044A   11227.79559890 -.00000153  00000-0 -50164-4 0  4976
2 29499  98.6835 285.9463 0000945 133.8496 226.2754 14.21496593250192
1 29499U 06044A   11228.78103150  .00000086  00000-0  59332-4 0  5004
2 29499  98.6830 286.9158 0000978 132.3095 227.8164 14.21497906250331
1 29499U 06044A   11229.13297191  .00000210  00000-0  11587-3 0  4987
2 29499  98.6830 287.2623 0000995 133.1107 227.0186 14.21498678250382
1 29499U 06044A   11229.69607543  .00000148  00000-0  87691-4 0  5008
2 29499  98.6827 287.8164 0001017 135.7310 224.3934 14.21498586250462
1 29499U 06044A   11230.32956828  .00000167  00000-0  96330-4 0  4991
2 29499  98.6826 288.4398 0001098 135.6891 224.4386 14.21498890250559
1 29499U 06044A   11230.82228426  .00000008  00000-0  23391-4 0  5017
2 29499  98.6826 288.9244 0001094 136.6770 223.4452 14.21498085250624
